COMMENT,ORIGINATOR,NORAD_CAT_ID,OBJECT_NAME,OBJECT_TYPE,CLASSIFICATION_TYPE,INTLDES,EPOCH,EPOCH_MICROSECONDS,MEAN_MOTION,ECCENTRICITY,INCLINATION,RA_OF_ASC_NODE,ARG_OF_PERICENTER,MEAN_ANOMALY,EPHEMERIS_TYPE,ELEMENT_SET_NO,REV_AT_EPOCH,BSTAR,MEAN_MOTION_DOT,MEAN_MOTION_DDOT,FILE,TLE_LINE0,TLE_LINE1,TLE_LINE2,OBJECT_ID,OBJECT_NUMBER,SEMIMAJOR_AXIS,PERIOD,APOGEE,PERIGEE,DECAYED,date
GENERATED VIA SPACETRACK.ORG API,18 SPCS,48896,SPACEBEE-105,PAYLOAD,U,21059T,2023/2/4 14:18,263488,15.22354402,0.000821,97.5768,170.2262,8.8521,351.2858,0,999,8915,0.00095244,0.00021968,0,3772124,0 SPACEBEE-105,1 48896U 21059T   23035.59631092  .00021968  00000-0  95244-3 0  9993,2 48896  97.5768 170.2262 0008210   8.8521 351.2858 15.22354402 89157,2021-059T,48896,6876.878,94.59,504.389,493.097,0,2023/3/11
GENERATED VIA SPACETRACK.ORG API,18 SPCS,48896,SPACEBEE-105,PAYLOAD,U,21059T,2023/2/4 22:11,307264,15.2236787,0.0008195,97.5771,170.5577,7.8374,352.2989,0,999,8920,0.0008555,0.00019727,0,3772514,0 SPACEBEE-105,1 48896U 21059T   23035.92495726  .00019727  00000-0  85550-3 0  9991,2 48896  97.5771 170.5577 0008195   7.8374 352.2989 15.22367870 89205,2021-059T,48896,6876.838,94.589,504.338,493.067,0,2023/3/12
GENERATED VIA SPACETRACK.ORG API,18 SPCS,48896,SPACEBEE-105,PAYLOAD,U,21059T,2023/2/5 7:39,993632,15.22385409,0.0008232,97.5772,170.9555,6.502,353.6321,0,999,8926,0.00088328,0.00020382,0,3773728,0 SPACEBEE-105,1 48896U 21059T   23036.31932863  .00020382  00000-0  88328-3 0  9998,2 48896  97.5772 170.9555 0008232   6.5020 353.6321 15.22385409 89261,2021-059T,48896,6876.785,94.588,504.311,492.989,0,2023/3/13
GENERATED VIA SPACETRACK.ORG API,18 SPCS,48896,SPACEBEE-105,PAYLOAD,U,21059T,2023/2/5 21:51,767616,15.22413025,0.0008174,97.5775,171.5516,4.7861,355.3452,0,999,8935,0.0009191,0.00021231,0,3774172,0 SPACEBEE-105,1 48896U 21059T   23036.91087694  .00021231  00000-0  91910-3 0  9992,2 48896  97.5775 171.5516 0008174   4.7861 355.3452 15.22413025 89356,2021-059T,48896,6876.702,94.587,504.188,492.946,0,2023/3/14
GENERATED VIA SPACETRACK.ORG API,18 SPCS,48896,SPACEBEE-105,PAYLOAD,U,21059T,2023/2/5 21:51,767616,15.22413025,0.0008174,97.5775,171.5516,4.7861,355.3452,0,999,8935,0.0009191,0.00021231,0,3774312,0 SPACEBEE-105,1 48896U 21059T   23036.91087694  .00021231  00000-0  91910-3 0  9992,2 48896  97.5775 171.5516 0008174   4.7861 355.3452 15.22413025 89356,2021-059T,48896,6876.702,94.587,504.188,492.946,0,2023/3/15
GENERATED VIA SPACETRACK.ORG API,18 SPCS,48896,SPACEBEE-105,PAYLOAD,U,21059T,2023/2/6 8:54,137536,15.22438968,0.0008204,97.5776,172.0157,3.2755,356.8534,0,999,8942,0.0011341,0.00026252,0,3775254,0 SPACEBEE-105,1 48896U 21059T   23037.37096224  .00026252  00000-0  11341-2 0  9999,2 48896  97.5776 172.0157 0008204   3.2755 356.8534 15.22438968 89422,2021-059T,48896,6876.623,94.585,504.13,492.847,0,2023/3/16
GENERATED VIA SPACETRACK.ORG API,18 SPCS,48896,SPACEBEE-105,PAYLOAD,U,21059T,2023/2/6 19:56,828352,15.22465048,0.0008214,97.5777,172.4794,1.5672,358.5588,0,999,8949,0.0011587,0.00026846,0,3776034,0 SPACEBEE-105,1 48896U 21059T   23037.83103968  .00026846  00000-0  11587-2 0  9995,2 48896  97.5777 172.4794 0008214   1.5672 358.5588 15.22465048 89498,2021-059T,48896,6876.545,94.583,504.058,492.762,0,2023/3/17
GENERATED VIA SPACETRACK.ORG API,18 SPCS,48896,SPACEBEE-105,PAYLOAD,U,21059T,2023/2/6 23:05,40096,15.22472469,0.0008195,97.5777,172.6122,1.3408,358.7848,0,999,8951,0.0011869,0.0002751,0,3776211,0 SPACEBEE-105,1 48896U 21059T   23037.96248889  .00027510  00000-0  11869-2 0  9993,2 48896  97.5777 172.6122 0008195   1.3408 358.7848 15.22472469 89517,2021-059T,48896,6876.523,94.583,504.023,492.752,0,2023/3/18
GENERATED VIA SPACETRACK.ORG API,18 SPCS,48896,SPACEBEE-105,PAYLOAD,U,21059T,2023/2/7 8:33,228640,15.22502021,0.0008224,97.5776,173.0098,0.0513,0.0722,0,999,8957,0.001418,0.00032933,0,3777208,0 SPACEBEE-105,1 48896U 21059T   23038.35683135  .00032933  00000-0  14180-2 0  9998,2 48896  97.5776 173.0098 0008224   0.0513   0.0722 15.22502021 89571,2021-059T,48896,6876.434,94.581,503.954,492.643,0,2023/3/19
GENERATED VIA SPACETRACK.ORG API,18 SPCS,48896,SPACEBEE-105,PAYLOAD,U,21059T,2023/2/7 19:36,229472,15.22530999,0.0008109,97.578,173.4731,357.9964,2.1238,0,999,8964,0.0013272,0.00030836,0,3777507,0 SPACEBEE-105,1 48896U 21059T   23038.81688923  .00030836  00000-0  13272-2 0  9990,2 48896  97.5780 173.4731 0008109 357.9964   2.1238 15.22530999 89648,2021-059T,48896,6876.346,94.579,503.787,492.635,0,2023/3/20
GENERATED VIA SPACETRACK.ORG API,18 SPCS,48896,SPACEBEE-105,PAYLOAD,U,21059T,2023/2/7 21:10,571392,15.22535897,0.0008133,97.5781,173.5394,357.6844,2.4353,0,999,8965,0.0013268,0.00030831,0,3777976,0 SPACEBEE-105,1 48896U 21059T   23038.88261078  .00030831  00000-0  13268-2 0  9995,2 48896  97.5781 173.5394 0008133 357.6844   2.4353 15.22535897 89650,2021-059T,48896,6876.332,94.579,503.789,492.604,0,2023/3/21
GENERATED VIA SPACETRACK.ORG API,18 SPCS,48896,SPACEBEE-105,PAYLOAD,U,21059T,2023/2/8 8:13,564800,15.22569904,0.0008364,97.578,174.004,355.8058,4.3106,0,999,8972,0.0014161,0.00032956,0,3780324,0 SPACEBEE-105,1 48896U 21059T   23039.34265700  .00032956  00000-0  14161-2 0  9996,2 48896  97.5780 174.0040 0008364 355.8058   4.3106 15.22569904 89727,2021-059T,48896,6876.229,94.577,503.846,492.343,0,2023/3/22
GENERATED VIA SPACETRACK.ORG API,18 SPCS,48896,SPACEBEE-105,PAYLOAD,U,21059T,2023/2/8 14:31,327680,15.22590441,0.0008329,97.5779,174.269,354.7345,5.3802,0,999,8976,0.0015631,0.00036423,0,3780399,0 SPACEBEE-105,1 48896U 21059T   23039.60553620  .00036423  00000-0  15631-2 0  9992,2 48896  97.5779 174.2690 0008329 354.7345   5.3802 15.22590441 89764,2021-059T,48896,6876.167,94.576,503.76,492.305,0,2023/3/23
GENERATED VIA SPACETRACK.ORG API,18 SPCS,48896,SPACEBEE-105,PAYLOAD,U,21059T,2023/2/8 20:50,789888,15.22609867,0.0008341,97.5779,174.534,353.638,6.4749,0,999,8980,0.0015285,0.00035632,0,3780893,0 SPACEBEE-105,1 48896U 21059T   23039.86841192  .00035632  00000-0  15285-2 0  9990,2 48896  97.5779 174.5340 0008341 353.6380   6.4749 15.22609867 89800,2021-059T,48896,6876.109,94.574,503.709,492.239,0,2023/3/24
GENERATED VIA SPACETRACK.ORG API,18 SPCS,48896,SPACEBEE-105,PAYLOAD,U,21059T,2023/2/9 7:52,847072,15.2264694,0.0008161,97.5778,174.997,352.1652,7.9455,0,999,8987,0.001672,0.00039043,0,3782313,0 SPACEBEE-105,1 48896U 21059T   23040.32843573  .00039043  00000-0  16720-2 0  9993,2 48896  97.5778 174.9970 0008161 352.1652   7.9455 15.22646940 89878,2021-059T,48896,6875.997,94.572,503.474,492.251,0,2023/3/25
GENERATED VIA SPACETRACK.ORG API,18 SPCS,48896,SPACEBEE-105,PAYLOAD,U,21059T,2023/2/9 20:29,806752,15.22687716,0.0008168,97.5778,175.527,350.4045,9.7034,0,999,8995,0.001638,0.00038289,0,3783155,0 SPACEBEE-105,1 48896U 21059T   23040.85416443  .00038289  00000-0  16380-2 0  9996,2 48896  97.5778 175.5270 0008168 350.4045   9.7034 15.22687716 89950,2021-059T,48896,6875.875,94.57,503.356,492.123,0,2023/3/26
GENERATED VIA SPACETRACK.ORG API,18 SPCS,48896,SPACEBEE-105,PAYLOAD,U,21059T,2023/2/9 20:29,806752,15.22687716,0.0008168,97.5778,175.527,350.4045,9.7034,0,999,8995,0.001638,0.00038289,0,3783241,0 SPACEBEE-105,1 48896U 21059T   23040.85416443  .00038289  00000-0  16380-2 0  9996,2 48896  97.5778 175.5270 0008168 350.4045   9.7034 15.22687716 89950,2021-059T,48896,6875.875,94.57,503.356,492.123,0,2023/3/27
GENERATED VIA SPACETRACK.ORG API,18 SPCS,48896,SPACEBEE-105,PAYLOAD,U,21059T,2023/2/10 2:48,819168,15.22707852,0.000819,97.5777,175.7922,349.6478,10.4589,0,999,8999,0.0016942,0.00039636,0,3784184,0 SPACEBEE-105,1 48896U 21059T   23041.11702337  .00039636  00000-0  16942-2 0  9997,2 48896  97.5777 175.7922 0008190 349.6478  10.4589 15.22707852 89992,2021-059T,48896,6875.814,94.568,503.31,492.048,0,2023/3/28
GENERATED VIA SPACETRACK.ORG API,18 SPCS,48896,SPACEBEE-105,PAYLOAD,U,21059T,2023/2/10 15:25,736352,15.22756289,0.0008188,97.5778,176.3226,347.8903,12.2135,0,999,9007,0.0018219,0.00042708,0,3785071,0 SPACEBEE-105,1 48896U 21059T   23041.64272843  .00042708  00000-0  18219-2 0  9992,2 48896  97.5778 176.3226 0008188 347.8903  12.2135 15.22756289 90073,2021-059T,48896,6875.668,94.565,503.163,491.903,0,2023/3/29
GENERATED VIA SPACETRACK.ORG API,18 SPCS,48896,SPACEBEE-105,PAYLOAD,U,21059T,2023/2/11 2:27,17856,15.22792965,0.0008162,97.5777,176.7866,346.4725,13.6291,0,999,9014,0.0017618,0.00041334,0,3785195,0 SPACEBEE-105,1 48896U 21059T   23042.10270854  .00041334  00000-0  17618-2 0  9990,2 48896  97.5777 176.7866 0008162 346.4725  13.6291 15.22792965 90142,2021-059T,48896,6875.558,94.563,503.035,491.811,0,2023/3/30
GENERATED VIA SPACETRACK.ORG API,18 SPCS,48896,SPACEBEE-105,PAYLOAD,U,21059T,2023/2/11 2:27,17856,15.22792965,0.0008162,97.5777,176.7866,346.4725,13.6291,0,999,9014,0.0017618,0.00041334,0,3786144,0 SPACEBEE-105,1 48896U 21059T   23042.10270854  .00041334  00000-0  17618-2 0  9990,2 48896  97.5777 176.7866 0008162 346.4725  13.6291 15.22792965 90142,2021-059T,48896,6875.558,94.563,503.035,491.811,0,2023/3/31
GENERATED VIA SPACETRACK.ORG API,18 SPCS,48896,SPACEBEE-105,PAYLOAD,U,21059T,2023/2/11 8:46,360160,15.2281935,0.0008161,97.5776,177.0516,345.635,14.4653,0,999,9018,0.0018506,0.00043467,0,3786577,0 SPACEBEE-105,1 48896U 21059T   23042.36554815  .00043467  00000-0  18506-2 0  9996,2 48896  97.5776 177.0516 0008161 345.6350  14.4653 15.22819350 90184,2021-059T,48896,6875.478,94.561,502.954,491.732,0,2023/4/1
GENERATED VIA SPACETRACK.ORG API,18 SPCS,48896,SPACEBEE-105,PAYLOAD,U,21059T,2023/2/12 3:41,488864,15.22884447,0.0008199,97.5781,177.8472,342.4599,17.6353,0,999,9030,0.0017452,0.00041053,0,3786734,0 SPACEBEE-105,1 48896U 21059T   23043.15404501  .00041053  00000-0  17452-2 0  9998,2 48896  97.5781 177.8472 0008199 342.4599  17.6353 15.22884447 90305,2021-059T,48896,6875.282,94.557,502.784,491.51,0,2023/4/2
